{"type":"FeatureCollection","features":[{"type":"Feature","properties":{"code":"MDSB","name":"Majlis Daerah Sabak Bernam"},"geometry":{"type":"Polygon","coordinates":[[[100.9394,3.8341],[101.022,3.806],[101.06,3.7947],[101.1329,3.7639],[101.1913,3.731],[101.2544,3.6715],[101.342,3.6948],[101.3494,3.5989],[101.1768,3.5357],[101.1001,3.4849],[101.0327,3.6208],[100.9212,3.6937],[100.8086,3.7886],[100.8211,3.8507],[100.9401,3.87],[100.9394,3.8341]]]}},{"type":"Feature","properties":{"code":"MPKS","name":"Majlis Perbandaran Kuala Selangor"},"geometry":{"type":"Polygon","coordinates":[[[101.4587,3.2995],[101.4923,3.2751],[101.493,3.1839],[101.4006,3.192],[101.3035,3.1645],[101.287,3.2665],[101.2265,3.3385],[101.1001,3.4849],[101.1768,3.5357],[101.3494,3.5989],[101.47,3.4831],[101.4305,3.3046],[101.4587,3.2995]]]}},{"type":"Feature","properties":{"code":"MBSJ","name":"Majlis Bandaraya Subang Jaya"},"geometry":{"type":"Polygon","coordinates":[[[101.6463,3.0709],[101.6513,3.0461],[101.7134,3.054],[101.7306,3.0353],[101.7136,2.9837],[101.5586,2.9793],[101.572,3.0382],[101.5489,3.0423],[101.557,3.0746],[101.6463,3.0709]]]}},{"type":"Feature","properties":{"code":"MBPJ","name":"Majlis Bandaraya Petaling Jaya"},"geometry":{"type":"Polygon","coordinates":[[[101.6251,3.1998],[101.6151,3.153],[101.6637,3.0862],[101.6379,3.0697],[101.5982,3.0734],[101.5517,3.1451],[101.5799,3.2063],[101.6251,3.1998]]]}},{"type":"Feature","properties":{"code":"MPKL","name":"Majlis Perbandaran Kuala Langat"},"geometry":{"type":"Polygon","coordinates":[[[101.5899,2.6427],[101.4836,2.6867],[101.403,2.8053],[101.2923,2.8379],[101.2842,2.8807],[101.32,2.9115],[101.3793,2.9067],[101.4174,2.9772],[101.524,2.9496],[101.5757,2.9797],[101.6479,2.8412],[101.6834,2.8144],[101.6333,2.7562],[101.5957,2.7277],[101.5899,2.6427]]]}},{"type":"Feature","properties":{"code":"MPHS","name":"Majlis Perbandaran Hulu Selangor"},"geometry":{"type":"Polygon","coordinates":[[[101.3662,3.8015],[101.5189,3.6784],[101.5784,3.7204],[101.6553,3.7266],[101.7349,3.7122],[101.8151,3.6033],[101.8051,3.5498],[101.762,3.5082],[101.7921,3.423],[101.7597,3.3725],[101.6822,3.3327],[101.6395,3.3213],[101.4812,3.3695],[101.47,3.4831],[101.3494,3.5989],[101.3196,3.7686],[101.3662,3.8015]]]}},{"type":"Feature","properties":{"code":"MPSEPANG","name":"Majlis Perbandaran Sepang"},"geometry":{"type":"Polygon","coordinates":[[[101.7229,3.0084],[101.7896,2.8693],[101.762,2.7038],[101.7063,2.5947],[101.5901,2.6416],[101.5957,2.7277],[101.6834,2.8144],[101.6479,2.8412],[101.5757,2.9797],[101.7136,2.9837],[101.7229,3.0084]]]}},{"type":"Feature","properties":{"code":"MPKJ","name":"Majlis Perbandaran Kajang"},"geometry":{"type":"Polygon","coordinates":[[[101.9451,3.177],[101.9662,3.1397],[101.9488,3.1096],[101.9681,3.0253],[101.9398,3.0148],[101.8819,2.8661],[101.7896,2.8693],[101.7209,3.0118],[101.7496,3.0549],[101.7461,3.0823],[101.8085,3.1477],[101.8028,3.1861],[101.8308,3.2579],[101.9257,3.2601],[101.9491,3.215],[101.9451,3.177]]]}},{"type":"Feature","properties":{"code":"MPAJ","name":"Majlis Perbandaran Ampang Jaya"},"geometry":{"type":"Polygon","coordinates":[[[101.7836,3.2861],[101.8537,3.2758],[101.8114,3.2165],[101.8085,3.1477],[101.7461,3.0823],[101.735,3.1356],[101.7509,3.1604],[101.7311,3.1736],[101.7585,3.1874],[101.7395,3.2224],[101.7836,3.2861]]]}},{"type":"Feature","properties":{"code":"MPS","name":"Majlis Perbandaran Selayang"},"geometry":{"type":"Polygon","coordinates":[[[101.4328,3.3093],[101.4575,3.4023],[101.5033,3.3509],[101.6395,3.3213],[101.6822,3.3327],[101.7221,3.3884],[101.7805,3.3587],[101.8298,3.2919],[101.7836,3.2861],[101.7148,3.2129],[101.6642,3.2445],[101.6061,3.1996],[101.56,3.2297],[101.498,3.2226],[101.4923,3.2751],[101.4328,3.3093]]]}},{"type":"Feature","properties":{"code":"MBSA","name":"Majlis Bandaraya Shah Alam"},"geometry":{"type":"Polygon","coordinates":[[[101.4981,3.2226],[101.56,3.2297],[101.5799,3.2063],[101.5517,3.1451],[101.5914,3.0922],[101.557,3.0746],[101.5489,3.0423],[101.572,3.0382],[101.5719,3.0014],[101.524,2.9496],[101.4727,3.0307],[101.4763,3.0854],[101.4438,3.0949],[101.4731,3.1606],[101.4277,3.192],[101.4981,3.2226]]]}},{"type":"Feature","properties":{"code":"MBDK","name":"Majlis Bandaraya Diraja Klang"},"geometry":{"type":"Polygon","coordinates":[[[101.4731,3.1606],[101.4438,3.0949],[101.4763,3.0854],[101.4727,3.0307],[101.524,2.9496],[101.4217,2.95],[101.4174,2.9772],[101.3707,2.9052],[101.3515,2.9248],[101.3937,2.9929],[101.361,3.0065],[101.3588,3.0735],[101.3197,3.1132],[101.3069,3.1648],[101.4277,3.192],[101.4731,3.1606]]]}}]}